MEAN_MOTION;ECCENTRICITY;INCLINATION;RA_OF_ASC_NODE;ARG_OF_PERICENTER;MEAN_ANOMALY;BSTAR;MEAN_MOTION_DOT;MEAN_MOTION_DDOT;TYPE
2.00569998;0.0037921;53.9493;257.6716;190.4246;169.4996;0;5.8E-7;0;Navigation
2.00570026;0.0037952;53.9491;257.651;190.433;169.4903;0;5.4E-7;0;Navigation
2.00570034;0.0037964;53.9488;257.6305;190.4517;169.4701;0;4.9E-7;0;Navigation
2.00570044;0.0037963;53.9488;257.6305;190.4444;169.4775;0;4.9E-7;0;Navigation
2.00570107;0.0038016;53.9481;257.5689;190.4822;169.432;0;3.0E-7;0;Navigation
2.00570121;0.0038031;53.9479;257.5483;190.5013;169.4095;0;2.3E-7;0;Navigation
2.00570121;0.0038031;53.9479;257.5483;190.5013;169.4095;0;2.3E-7;0;Navigation
2.00570168;0.0038066;53.9474;257.5072;190.5247;169.3788;0;1.0E-7;0;Navigation
2.00570209;0.0038087;53.9472;257.4867;190.5312;169.3688;0;5.0E-8;0;Navigation
2.00570221;0.0038097;53.947;257.4661;190.5519;169.3446;0;0;0;Navigation
2.00570248;0.0038112;53.947;257.4661;190.5482;169.3483;0;0;0;Navigation
2.00570279;0.0038129;53.9465;257.425;190.5735;169.3176;0;-5.0E-8;0;Navigation
2.00570322;0.0038151;53.9464;257.4045;190.5725;169.3168;0;-6.0E-8;0;Navigation
2.00570403;0.0038202;53.9457;257.3429;190.6143;169.2727;0;-1.0E-8;0;Navigation
2.00570423;0.0038213;53.9457;257.3429;190.605;169.282;0;-1.0E-8;0;Navigation
2.0057047;0.0038241;53.9453;257.3018;190.6385;169.2495;0;6.0E-8;0;Navigation
2.0057047;0.0038241;53.9453;257.3018;190.6385;169.2495;0;6.0E-8;0;Navigation
2.00570539;0.0038276;53.9448;257.2607;190.6643;169.2261;0;1.3E-7;0;Navigation
2.00570584;0.0038309;53.9446;257.2402;190.6737;169.2182;0;1.5E-7;0;Navigation
2.00570601;0.0038317;53.9446;257.2402;190.6835;169.2082;0;1.5E-7;0;Navigation
2.00570649;0.0038364;53.9441;257.1992;190.7091;169.1852;0;1.9E-7;0;Navigation
2.00570649;0.0038364;53.9441;257.1992;190.7091;169.1852;0;1.9E-7;0;Navigation
2.00570753;0.003843;53.9433;257.1376;190.7597;169.1369;0;1.7E-7;0;Navigation
2.00570726;0.0038411;53.9433;257.1376;190.7596;169.1371;0;1.7E-7;0;Navigation
2.00570753;0.003843;53.9433;257.1376;190.7597;169.1369;0;1.7E-7;0;Navigation
2.00570856;0.0038511;53.9421;257.035;190.8152;169.0788;0;2.0E-8;0;Navigation
2.00570865;0.0038523;53.9422;257.035;190.8087;169.0853;0;2.0E-8;0;Navigation
2.00570899;0.0038562;53.9417;256.994;190.8377;169.0531;0;-4.0E-8;0;Navigation
2.00570919;0.0038583;53.9415;256.9735;190.8492;169.0398;0;-7.0E-8;0;Navigation
2.00570919;0.0038583;53.9415;256.9735;190.8492;169.0398;0;-7.0E-8;0;Navigation
2.00570956;0.0038629;53.9413;256.953;190.8625;169.0244;0;-8.0E-8;0;Navigation
2.00570973;0.003865;53.941;256.9325;190.8751;169.0099;0;-9.0E-8;0;Navigation
2.00570991;0.0038681;53.9405;256.8915;190.9047;168.9766;0;-9.0E-8;0;Navigation
2.00570991;0.0038681;53.9405;256.8915;190.9047;168.9766;0;-9.0E-8;0;Navigation
2.0057103;0.0038743;53.94;256.8505;190.9393;168.9389;0;-6.0E-8;0;Navigation
2.00571066;0.0038792;53.9396;256.8096;190.9795;168.8969;0;0;0;Navigation
2.00571066;0.0038792;53.9396;256.8096;190.9795;168.8969;0;0;0;Navigation
2.00571121;0.0038879;53.9384;256.707;191.0582;168.8206;0;1.8E-7;0;Navigation
2.00571121;0.0038879;53.9384;256.707;191.0582;168.8206;0;1.8E-7;0;Navigation
2.00571133;0.0038892;53.9384;256.7071;191.057;168.8217;0;1.8E-7;0;Navigation
2.00571152;0.003893;53.9379;256.6661;191.092;168.7899;0;2.5E-7;0;Navigation
2.00571159;0.0038941;53.9377;256.6455;191.1091;168.7745;0;2.7E-7;0;Navigation
2.00571172;0.0038959;53.9377;256.6456;191.11;168.7736;0;2.7E-7;0;Navigation
2.00571187;0.0038985;53.9372;256.6045;191.1411;168.7456;0;2.9E-7;0;Navigation
2.00571201;0.0039006;53.9369;256.584;191.1598;168.7281;0;2.8E-7;0;Navigation
2.00571233;0.0039049;53.9364;256.5431;191.1987;168.6903;0;2.3E-7;0;Navigation
2.00571287;0.0039112;53.9356;256.4815;191.2675;168.6188;0;9.0E-8;0;Navigation
2.00571296;0.003912;53.9356;256.4815;191.2697;168.6165;0;9.0E-8;0;Navigation
2.00571329;0.0039156;53.9351;256.4405;191.3158;168.5661;0;-5.0E-8;0;Navigation
2.00571353;0.0039179;53.9348;256.42;191.3411;168.538;0;-1.2E-7;0;Navigation
2.005714;0.0039217;53.9345;256.3995;191.3676;168.5085;0;-1.8E-7;0;Navigation
2.00571437;0.0039242;53.934;256.3584;191.3956;168.475;0;-2.9E-7;0;Navigation
2.00571452;0.0039261;53.9337;256.3379;191.4248;168.4432;0;-3.4E-7;0;Navigation
2.0057154;0.0039318;53.933;256.2763;191.4819;168.3815;0;-3.8E-7;0;Navigation
2.00571589;0.0039347;53.9328;256.2559;191.4925;168.3706;0;-3.7E-7;0;Navigation
2.00571667;0.0039398;53.9323;256.2149;191.546;168.318;0;-3.2E-7;0;Navigation
2.0057167;0.0039401;53.932;256.1943;191.5596;168.3058;0;-2.9E-7;0;Navigation
2.005717;0.0039419;53.932;256.1943;191.5658;168.2995;0;-2.9E-7;0;Navigation
2.00571801;0.0039488;53.9311;256.1123;191.6491;168.2242;0;-1.6E-7;0;Navigation
2.00571813;0.0039502;53.9311;256.1124;191.6505;168.2228;0;-1.6E-7;0;Navigation
2.00571813;0.0039502;53.9311;256.1124;191.6505;168.2228;0;-1.6E-7;0;Navigation
2.00571879;0.0039548;53.9306;256.0714;191.699;168.1785;0;-1.2E-7;0;Navigation
2.00571915;0.0039574;53.9304;256.0509;191.7259;168.1533;0;-1.2E-7;0;Navigation
2.00571956;0.0039605;53.9299;256.0099;191.7761;168.1058;0;-1.5E-7;0;Navigation
2.00571956;0.0039605;53.9299;256.0099;191.7761;168.1058;0;-1.5E-7;0;Navigation
2.00572037;0.0039672;53.9293;255.9689;191.8267;168.0564;0;-2.0E-7;0;Navigation
2.00572074;0.0039707;53.9288;255.9279;191.8536;168.0295;0;-2.7E-7;0;Navigation
2.0057209;0.0039719;53.9285;255.9074;191.8772;168.0055;0;-3.0E-7;0;Navigation
2.00572123;0.0039751;53.9283;255.8869;191.8888;167.9932;0;-3.3E-7;0;Navigation
2.00572135;0.0039762;53.928;255.8664;191.9112;167.9699;0;-3.6E-7;0;Navigation
2.00572178;0.0039809;53.9278;255.846;191.9385;167.9413;0;-3.8E-7;0;Navigation
2.00572178;0.0039809;53.9278;255.846;191.9385;167.9413;0;-3.8E-7;0;Navigation
2.00572178;0.0039809;53.9278;255.846;191.9385;167.9413;0;-3.8E-7;0;Navigation
2.00572216;0.0039862;53.927;255.7844;191.9963;167.8804;0;-4.0E-7;0;Navigation
2.00572216;0.0039862;53.927;255.7844;191.9963;167.8804;0;-4.0E-7;0;Navigation
2.00572263;0.0039934;53.9265;255.7435;192.0562;167.8187;0;-3.7E-7;0;Navigation
2.00572268;0.0039939;53.9263;255.723;192.075;167.7996;0;-3.4E-7;0;Navigation
2.00572292;0.0039978;53.926;255.7026;192.106;167.7684;0;-3.1E-7;0;Navigation
2.00572292;0.0039978;53.926;255.7026;192.106;167.7684;0;-3.1E-7;0;Navigation
2.00572314;0.0040007;53.9257;255.6821;192.1382;167.7365;0;-2.7E-7;0;Navigation
2.00572315;0.0040016;53.9255;255.6616;192.1543;167.7211;0;-2.3E-7;0;Navigation
2.00572315;0.0040016;53.9255;255.6616;192.1543;167.7211;0;-2.3E-7;0;Navigation
2.00572315;0.0040016;53.9255;255.6616;192.1543;167.7211;0;-2.3E-7;0;Navigation
2.0057237;0.00401;53.9245;255.5796;192.2457;167.6363;0;-5.0E-8;0;Navigation
2.00572395;0.004014;53.9239;255.5387;192.2894;167.5974;0;2.0E-8;0;Navigation
2.00572395;0.004014;53.9239;255.5387;192.2894;167.5974;0;2.0E-8;0;Navigation
2.00572416;0.004017;53.9237;255.5182;192.3139;167.5755;0;4.0E-8;0;Navigation
2.00572423;0.0040177;53.9236;255.5182;192.3184;167.571;0;4.0E-8;0;Navigation
2.00572451;0.004022;53.9231;255.4772;192.365;167.529;0;7.0E-8;0;Navigation
2.00572484;0.0040253;53.9223;255.4157;192.4289;167.4695;0;2.0E-8;0;Navigation
2.00572484;0.0040253;53.9223;255.4157;192.4289;167.4695;0;2.0E-8;0;Navigation
2.00572529;0.0040302;53.9218;255.3747;192.4926;167.4058;0;-6.0E-8;0;Navigation
2.00572541;0.0040318;53.9215;255.3542;192.5206;167.377;0;-1.2E-7;0;Navigation
2.00572568;0.0040345;53.9212;255.3337;192.5557;167.3404;0;-1.8E-7;0;Navigation
2.00572581;0.0040359;53.921;255.3132;192.5844;167.31;0;-2.4E-7;0;Navigation
2.00572642;0.0040407;53.9204;255.2722;192.6355;167.2546;0;-3.6E-7;0;Navigation
2.00572642;0.0040407;53.9204;255.2722;192.6355;167.2546;0;-3.6E-7;0;Navigation
2.00572674;0.0040432;53.9199;255.2312;192.6846;167.2013;0;-4.6E-7;0;Navigation
2.00572743;0.0040471;53.9194;255.1902;192.7314;167.1516;0;-5.1E-7;0;Navigation
2.00572761;0.0040483;53.9191;255.1697;192.7549;167.1274;0;-5.2E-7;0;Navigation
2.00572803;0.0040509;53.9189;255.1492;192.7796;167.1025;0;-5.1E-7;0;Navigation
2.00572803;0.0040509;53.9189;255.1492;192.7796;167.1025;0;-5.1E-7;0;Navigation
2.00572886;0.0040561;53.9181;255.0877;192.8565;167.0287;0;-4.3E-7;0;Navigation
2.00572919;0.0040582;53.9179;255.0672;192.8819;167.0054;0;-3.9E-7;0;Navigation
2.00572981;0.0040622;53.9174;255.0262;192.9303;166.9621;0;-3.1E-7;0;Navigation
2.00573027;0.0040653;53.9172;255.0057;192.9572;166.9379;0;-2.8E-7;0;Navigation
2.00573051;0.0040666;53.9169;254.9852;192.9867;166.9112;0;-2.5E-7;0;Navigation
2.00573092;0.0040693;53.9167;254.9647;193.0079;166.8928;0;-2.2E-7;0;Navigation
2.00573092;0.0040693;53.9167;254.9647;193.0079;166.8928;0;-2.2E-7;0;Navigation
2.00573149;0.0040725;53.9162;254.9237;193.0631;166.8422;0;-2.1E-7;0;Navigation
2.00573176;0.0040742;53.9161;254.9237;193.0761;166.8291;0;-2.1E-7;0;Navigation
2.00573208;0.0040762;53.9157;254.8827;193.1128;166.7961;0;-2.3E-7;0;Navigation
2.00573238;0.0040784;53.9154;254.8622;193.1378;166.7724;0;-2.5E-7;0;Navigation
2.00573301;0.0040837;53.9149;254.8212;193.1858;166.7256;0;-3.1E-7;0;Navigation
2.00573319;0.0040848;53.9146;254.8007;193.2097;166.7019;0;-3.4E-7;0;Navigation
2.00573368;0.0040888;53.9141;254.7598;193.255;166.6561;0;-3.9E-7;0;Navigation
2.00573412;0.0040928;53.9139;254.7393;193.2886;166.6219;0;-4.2E-7;0;Navigation
2.00573455;0.0040976;53.9131;254.6778;193.3521;166.5565;0;-4.3E-7;0;Navigation
2.0057347;0.0040991;53.9131;254.6778;193.3569;166.5515;0;-4.3E-7;0;Navigation
2.0057347;0.0040991;53.9131;254.6778;193.3569;166.5515;0;-4.3E-7;0;Navigation
2.00573508;0.0041038;53.9127;254.6368;193.4144;166.493;0;-4.0E-7;0;Navigation
2.00573508;0.0041038;53.9127;254.6368;193.4144;166.493;0;-4.0E-7;0;Navigation
2.00573532;0.0041066;53.9122;254.5958;193.4621;166.4454;0;-3.4E-7;0;Navigation
2.00573552;0.0041087;53.9119;254.5753;193.4822;166.4257;0;-3.0E-7;0;Navigation
2.00573566;0.0041106;53.9117;254.5548;193.508;166.4007;0;-2.5E-7;0;Navigation
2.00573582;0.0041128;53.9115;254.5343;193.5361;166.3739;0;-2.0E-7;0;Navigation
